STARLINK-1934
1 46792U 20074BF  26061.16668981  .00172859  00000+0  10906-2 0  9990
2 46792  53.0447 304.2181 0003965  96.5110 157.9805 15.75611186  5930
STARLINK-1363
1 45568U 20025AP  26061.08628074  .00104902  00000+0  69173-3 0  9991
2 45568  53.0430  75.6389 0008665  28.6284 331.5209 15.74797541324853
STARLINK-1681
1 46559U 20070AD  26061.16668981  .00104240  00000+0  68748-3 0  9994
2 46559  53.0496 111.9108 0009108 340.3458 175.8203 15.74791283  5990
STARLINK-1975
1 47573U 21009AB  26061.16668981  .00156282  00000+0  10245-2 0  9995
2 47573  53.0534 346.6040 0006226  81.7849 184.0318 15.74773054  5849
STARLINK-1775
1 46681U 20073M   26061.16668981  .00104683  00000+0  69864-3 0  9994
2 46681  53.0438 247.9776 0003799 129.2402  15.9226 15.74560096  5980
STARLINK-1621
1 46127U 20057L   26061.25002314  .00032629  00000+0  22285-3 0  9999
2 46127  53.0450 280.7679 0005854 185.0368 134.8286 15.74518040  5946
STARLINK-1366
1 45569U 20025AQ  26061.03447828  .00110502  00000+0  75209-3 0  9993
2 45569  53.0422  76.6281 0008363  25.2426 334.8999 15.74046428324834
STARLINK-1680
1 46558U 20070AC  26061.00002315  .00075510  00000+0  52042-3 0  9996
2 46558  53.0433 147.8260 0006369 339.9065 223.8184 15.73931045  5961
